{"spkid": "54416720", "covariance": {"epoch": "2459696.5", "labels": ["e", "q", "tp", "node", "peri", "i"], "elements": [{"sigma": 2.23864124886146e-07, "name": "e", "value": ".7582744425024447", "title": "eccentricity", "units": null, "label": "e"}, {"label": "q", "value": ".2834234932041872", "title": "perihelion distance", "units": "au", "sigma": 2.62158533689636e-07, "name": "q"}, {"units": "TDB", "value": "2459884.555137061068", "title": "time of perihelion passage", "sigma": 2.79510646632644e-05, "name": "tp", "label": "tp"}, {"title": "longitude of the ascending node", "value": "101.4825274706426", "units": "deg", "name": "om", "sigma": 2.46866765652348e-05, "label": "node"}, {"label": "peri", "sigma": 2.76973382167495e-05, "name": "w", "units": "deg", "title": "argument of perihelion", "value": "128.048442483842"}, {"label": "i", "title": "inclination", "value": "24.26760790983811", "units": "deg", "name": "i", "sigma": 2.45575250404051e-05}], "data": [["5.011514641104017E-14", "-5.868683948776106E-14", "-5.807712746821045E-12", "-2.923364713159048E-12", "4.941436309757775E-12", "1.92060141138801E-12"], ["-5.868683948776106E-14", "6.872709678630004E-14", "6.794852124073862E-12", "3.418658622797479E-12", "-5.784031976084737E-12", "-2.244816112978551E-12"], ["-5.807712746821045E-12", "6.794852124073862E-12", "7.812620158099864E-10", "4.320310426298644E-10", "-5.924829903329273E-10", "-2.811638597926117E-10"], ["-2.923364713159048E-12", "3.418658622797479E-12", "4.320310426298644E-10", "6.09431999836514E-10", "-6.078244383111737E-10", "-5.128871686353899E-10"], ["4.941436309757775E-12", "-5.784031976084737E-12", "-5.924829903329273E-10", "-6.078244383111737E-10", "7.671425442930107E-10", "5.058783312231577E-10"], ["1.92060141138801E-12", "-2.244816112978551E-12", "-2.811638597926117E-10", "-5.128871686353899E-10", "5.058783312231577E-10", "6.030720361101247E-10"]]}, "elements": [{"label": "e", "units": null, "value": ".7581597411794747", "title": "eccentricity", "sigma": "2.2382E-7", "name": "e"}, {"units": "au", "value": "1.172424437561156", "title": "semi-major axis", "sigma": "6.5452E-9", "name": "a", "label": "a"}, {"name": "q", "sigma": "2.6214E-7", "title": "perihelion distance", "value": ".2835394294272988", "units": "au", "label": "q"}, {"title": "inclination; angle with respect to x-y ecliptic plane", "value": "24.28949106550623", "units": "deg", "name": "i", "sigma": "2.458E-5", "label": "i"}, {"label": "node", "units": "deg", "value": "101.4102318175075", "title": "longitude of the ascending node", "name": "om", "sigma": "2.4657E-5"}, {"value": "128.1290389704227", "title": "argument of perihelion", "units": "deg", "sigma": "2.7665E-5", "name": "w", "label": "peri"}, {"label": "M", "title": "mean anomaly", "value": "301.582028065149", "units": "deg", "name": "ma", "sigma": "2.0735E-5"}, {"label": "tp", "name": "tp", "sigma": "2.6774E-5", "title": "time of perihelion passage", "value": "2461275.743622350721", "units": "TDB"}, {"label": "period", "sigma": "3.8829E-6", "name": "per", "units": "d", "title": "sidereal orbital period", "value": "463.6878540814151"}, {"label": "n", "title": "mean motion", "value": ".7763843646782057", "units": "deg/d", "name": "n", "sigma": "6.5014E-9"}, {"name": "ad", "sigma": "1.1508E-8", "value": "2.061309445695014", "title": "aphelion distance", "units": "au", "label": "Q"}], "epoch": "2461200.5"}